[{"OBJECT_NAME":"STARLINK-11608 [DTC]","OBJECT_ID":"2025-053L","EPOCH":"2026-03-09T10:46:00.517440","MEAN_MOTION":15.70855093,"ECCENTRICITY":0.0001311,"INCLINATION":42.9997,"RA_OF_ASC_NODE":113.5001,"ARG_OF_PERICENTER":278.0174,"MEAN_ANOMALY":82.0545,"EPHEMERIS_TYPE":0,"CLASSIFICATION_TYPE":"U","NORAD_CAT_ID":63275,"ELEMENT_SET_NO":999,"REV_AT_EPOCH":5762,"BSTAR":0.0015341002,"MEAN_MOTION_DOT":0.00201366,"MEAN_MOTION_DDOT":0},{"OBJECT_NAME":"FLOCK 4BE-10","OBJECT_ID":"2024-149AM","EPOCH":"2026-03-09T23:11:04.477920","MEAN_MOTION":15.73804605,"ECCENTRICITY":0.00059918,"INCLINATION":97.3736,"RA_OF_ASC_NODE":155.157,"ARG_OF_PERICENTER":229.3829,"MEAN_ANOMALY":130.6914,"EPHEMERIS_TYPE":0,"CLASSIFICATION_TYPE":"U","NORAD_CAT_ID":60503,"ELEMENT_SET_NO":999,"REV_AT_EPOCH":8723,"BSTAR":0.0018232079,"MEAN_MOTION_DOT":0.00264399,"MEAN_MOTION_DDOT":0}]
